{
  "type": "FeatureCollection",
  "properties": {
    "source": "https://www.openstreetmap.org",
    "copyright": "OpenStreetMap contributors",
    "license": "https://opendatacommons.org/licenses/odbl/1-0/",
    "latest_osm_feature_timestamp": "2026-07-01T17:05:11Z",
    "refresh_command": "pixi run openskistats download_dartmouth_context"
  },
  "features": [
    {
      "type": "Feature",
      "id": "way/296382919",
      "properties": {
        "feature_kind": "lodge",
        "osm_id": 296382919,
        "osm_version": 2,
        "osm_timestamp": "2023-02-13T20:53:10Z",
        "name": "McLane Family Lodge",
        "amenity": "events_venue",
        "building": "yes",
        "highway": null,
        "parking": null,
        "surface": null,
        "source": "https://www.openstreetmap.org/way/296382919"
      },
      "geometry": {
        "type": "Polygon",
        "coordinates": [
          [
            [
              -72.0998144,
              43.7879821
            ],
            [
              -72.0998368,
              43.7879923
            ],
            [
              -72.0998888,
              43.7879872
            ],
            [
              -72.0999253,
              43.7879477
            ],
            [
              -72.0999169,
              43.7879071
            ],
            [
              -72.0999002,
              43.7878983
            ],
            [
              -72.0999248,
              43.7878791
            ],
            [
              -72.0997231,
              43.7877854
            ],
            [
              -72.0997245,
              43.7877621
            ],
            [
              -72.0997076,
              43.7877378
            ],
            [
              -72.0996767,
              43.7877287
            ],
            [
              -72.0996401,
              43.7876089
            ],
            [
              -72.0996018,
              43.7876098
            ],
            [
              -72.0995923,
              43.7875824
            ],
            [
              -72.0994847,
              43.7875959
            ],
            [
              -72.0994879,
              43.7876277
            ],
            [
              -72.0994373,
              43.7876344
            ],
            [
              -72.0994975,
              43.7878974
            ],
            [
              -72.0997076,
              43.7879994
            ],
            [
              -72.0997315,
              43.787974
            ],
            [
              -72.0997891,
              43.7880024
            ],
            [
              -72.0998144,
              43.7879821
            ]
          ]
        ]
      }
    },
    {
      "type": "Feature",
      "id": "way/602788499",
      "properties": {
        "feature_kind": "parking",
        "osm_id": 602788499,
        "osm_version": 7,
        "osm_timestamp": "2026-06-02T23:37:25Z",
        "name": null,
        "amenity": "parking",
        "building": null,
        "highway": null,
        "parking": "surface",
        "surface": null,
        "source": "https://www.openstreetmap.org/way/602788499"
      },
      "geometry": {
        "type": "Polygon",
        "coordinates": [
          [
            [
              -72.1006518,
              43.7886187
            ],
            [
              -72.1005231,
              43.7886381
            ],
            [
              -72.100566,
              43.7888782
            ],
            [
              -72.100566,
              43.7892112
            ],
            [
              -72.100409,
              43.7892409
            ],
            [
              -72.1002093,
              43.7884565
            ],
            [
              -72.1002357,
              43.7884081
            ],
            [
              -72.0999805,
              43.7884453
            ],
            [
              -72.0998896,
              43.7884597
            ],
            [
              -72.099974,
              43.7888456
            ],
            [
              -72.100091,
              43.7893533
            ],
            [
              -72.1001886,
              43.7894359
            ],
            [
              -72.100095,
              43.7897718
            ],
            [
              -72.1000355,
              43.7899703
            ],
            [
              -72.100092,
              43.7899878
            ],
            [
              -72.1003192,
              43.7900206
            ],
            [
              -72.1003278,
              43.7900148
            ],
            [
              -72.1004652,
              43.7899229
            ],
            [
              -72.1005195,
              43.7897031
            ],
            [
              -72.1004864,
              43.7895462
            ],
            [
              -72.1004211,
              43.7893739
            ],
            [
              -72.1006042,
              43.7893341
            ],
            [
              -72.100684,
              43.7894901
            ],
            [
              -72.1007645,
              43.7896682
            ],
            [
              -72.1007966,
              43.789827
            ],
            [
              -72.1007859,
              43.7899896
            ],
            [
              -72.100731,
              43.790096
            ],
            [
              -72.100684,
              43.7901871
            ],
            [
              -72.1006786,
              43.7902568
            ],
            [
              -72.1007645,
              43.7903575
            ],
            [
              -72.100861,
              43.7904659
            ],
            [
              -72.1010702,
              43.7907021
            ],
            [
              -72.1012365,
              43.7908416
            ],
            [
              -72.1013425,
              43.7908702
            ],
            [
              -72.1014282,
              43.7908636
            ],
            [
              -72.1014833,
              43.7907912
            ],
            [
              -72.1014738,
              43.7907674
            ],
            [
              -72.1014582,
              43.7907284
            ],
            [
              -72.1011882,
              43.7900516
            ],
            [
              -72.1010434,
              43.7897263
            ],
            [
              -72.1009147,
              43.7894359
            ],
            [
              -72.1007913,
              43.7890486
            ],
            [
              -72.1006518,
              43.7886187
            ]
          ]
        ]
      }
    },
    {
      "type": "Feature",
      "id": "way/328497225",
      "properties": {
        "feature_kind": "road",
        "osm_id": 328497225,
        "osm_version": 10,
        "osm_timestamp": "2026-03-31T15:06:44Z",
        "name": "Grafton Turnpike",
        "amenity": null,
        "building": null,
        "highway": "unclassified",
        "parking": null,
        "surface": "gravel",
        "source": "https://www.openstreetmap.org/way/328497225"
      },
      "geometry": {
        "type": "LineString",
        "coordinates": [
          [
            -72.099605,
            43.787156
          ],
          [
            -72.0995677,
            43.786997
          ],
          [
            -72.0995385,
            43.786875
          ],
          [
            -72.0994868,
            43.7867435
          ],
          [
            -72.099403,
            43.786618
          ],
          [
            -72.0992483,
            43.7864058
          ],
          [
            -72.0990851,
            43.7861819
          ],
          [
            -72.099048,
            43.786131
          ],
          [
            -72.0988901,
            43.7859358
          ],
          [
            -72.098807,
            43.785833
          ],
          [
            -72.098644,
            43.78558
          ],
          [
            -72.098456,
            43.785255
          ],
          [
            -72.0983611,
            43.7851295
          ],
          [
            -72.0982062,
            43.7849639
          ],
          [
            -72.0981097,
            43.7848523
          ],
          [
            -72.098039,
            43.7847651
          ],
          [
            -72.0979657,
            43.7846609
          ],
          [
            -72.0979084,
            43.7845748
          ],
          [
            -72.0978725,
            43.7844947
          ],
          [
            -72.0977986,
            43.7842136
          ],
          [
            -72.0977457,
            43.7840454
          ],
          [
            -72.0976629,
            43.7838436
          ],
          [
            -72.0975661,
            43.7836619
          ],
          [
            -72.0974524,
            43.7834482
          ],
          [
            -72.0973256,
            43.7831627
          ],
          [
            -72.097201,
            43.7828789
          ],
          [
            -72.0970761,
            43.7825238
          ],
          [
            -72.097001,
            43.7823562
          ],
          [
            -72.0968456,
            43.7820252
          ],
          [
            -72.0967303,
            43.7817946
          ],
          [
            -72.0966093,
            43.7814887
          ],
          [
            -72.0963834,
            43.7809565
          ],
          [
            -72.0962662,
            43.7808081
          ],
          [
            -72.0961652,
            43.7806113
          ],
          [
            -72.0960399,
            43.7803317
          ],
          [
            -72.0959239,
            43.7800351
          ],
          [
            -72.0957958,
            43.779673
          ],
          [
            -72.0956154,
            43.7792407
          ],
          [
            -72.0954686,
            43.7789388
          ],
          [
            -72.0953113,
            43.7785049
          ],
          [
            -72.095299,
            43.7784229
          ],
          [
            -72.095161,
            43.7780262
          ],
          [
            -72.0949927,
            43.7776245
          ],
          [
            -72.0948002,
            43.7772251
          ],
          [
            -72.094691,
            43.7769741
          ],
          [
            -72.094615,
            43.77682
          ],
          [
            -72.0945444,
            43.7767311
          ],
          [
            -72.0944564,
            43.7766326
          ],
          [
            -72.0943411,
            43.7765407
          ],
          [
            -72.0942024,
            43.7764503
          ],
          [
            -72.0940854,
            43.7763931
          ],
          [
            -72.0940061,
            43.7763536
          ],
          [
            -72.0939464,
            43.7763033
          ],
          [
            -72.0939054,
            43.7762361
          ],
          [
            -72.0938547,
            43.7761524
          ],
          [
            -72.0938074,
            43.7760307
          ],
          [
            -72.093751,
            43.7757641
          ],
          [
            -72.0937089,
            43.7755111
          ],
          [
            -72.093655,
            43.7752801
          ],
          [
            -72.093598,
            43.7750625
          ],
          [
            -72.093573,
            43.7748527
          ],
          [
            -72.093569,
            43.7747373
          ],
          [
            -72.0935951,
            43.7745924
          ],
          [
            -72.0936636,
            43.7744472
          ]
        ]
      }
    },
    {
      "type": "Feature",
      "id": "way/532980281",
      "properties": {
        "feature_kind": "road",
        "osm_id": 532980281,
        "osm_version": 8,
        "osm_timestamp": "2026-02-11T13:32:32Z",
        "name": "Grafton Turnpike",
        "amenity": null,
        "building": null,
        "highway": "tertiary",
        "parking": null,
        "surface": "asphalt",
        "source": "https://www.openstreetmap.org/way/532980281"
      },
      "geometry": {
        "type": "LineString",
        "coordinates": [
          [
            -72.1002057,
            43.7878576
          ],
          [
            -72.1003417,
            43.7879924
          ],
          [
            -72.1004777,
            43.7881405
          ],
          [
            -72.1005507,
            43.7882659
          ],
          [
            -72.100645,
            43.788487
          ],
          [
            -72.100955,
            43.789438
          ],
          [
            -72.101282,
            43.790172
          ],
          [
            -72.10152,
            43.790772
          ],
          [
            -72.1015693,
            43.7909363
          ],
          [
            -72.10158,
            43.790972
          ],
          [
            -72.1016203,
            43.7910706
          ],
          [
            -72.101689,
            43.791239
          ],
          [
            -72.101843,
            43.791502
          ],
          [
            -72.10192,
            43.7915961
          ],
          [
            -72.101942,
            43.791623
          ],
          [
            -72.102171,
            43.791848
          ],
          [
            -72.1025979,
            43.7922217
          ],
          [
            -72.102791,
            43.792391
          ],
          [
            -72.103123,
            43.792658
          ]
        ]
      }
    },
    {
      "type": "Feature",
      "id": "way/532980282",
      "properties": {
        "feature_kind": "road",
        "osm_id": 532980282,
        "osm_version": 6,
        "osm_timestamp": "2021-07-07T02:47:15Z",
        "name": "Grafton Turnpike",
        "amenity": null,
        "building": null,
        "highway": "unclassified",
        "parking": null,
        "surface": "unpaved",
        "source": "https://www.openstreetmap.org/way/532980282"
      },
      "geometry": {
        "type": "LineString",
        "coordinates": [
          [
            -72.075707,
            43.723134
          ],
          [
            -72.076096,
            43.723942
          ],
          [
            -72.076534,
            43.724852
          ],
          [
            -72.076576,
            43.724915
          ],
          [
            -72.076663,
            43.725041
          ],
          [
            -72.076985,
            43.725549
          ],
          [
            -72.077578,
            43.726619
          ],
          [
            -72.0777,
            43.726848
          ],
          [
            -72.07843,
            43.728579
          ],
          [
            -72.07874,
            43.729424
          ],
          [
            -72.078901,
            43.729864
          ],
          [
            -72.079449,
            43.730831
          ],
          [
            -72.080539,
            43.732691
          ],
          [
            -72.081011,
            43.733497
          ],
          [
            -72.081558,
            43.734431
          ],
          [
            -72.081907,
            43.735082
          ],
          [
            -72.082096,
            43.735406
          ],
          [
            -72.082165,
            43.735511
          ],
          [
            -72.082304,
            43.735724
          ],
          [
            -72.083254,
            43.737333
          ],
          [
            -72.08417,
            43.738883
          ],
          [
            -72.084531,
            43.739457
          ],
          [
            -72.084881,
            43.739956
          ],
          [
            -72.085278,
            43.740596
          ],
          [
            -72.086329,
            43.742396
          ],
          [
            -72.086422,
            43.742594
          ],
          [
            -72.086551,
            43.743148
          ],
          [
            -72.086722,
            43.743548
          ],
          [
            -72.086984,
            43.743999
          ],
          [
            -72.0870451,
            43.7440869
          ],
          [
            -72.087114,
            43.744186
          ],
          [
            -72.087218,
            43.7443141
          ],
          [
            -72.0873155,
            43.7444341
          ],
          [
            -72.087849,
            43.745091
          ],
          [
            -72.088291,
            43.74555
          ],
          [
            -72.088595,
            43.746059
          ],
          [
            -72.088728,
            43.746681
          ],
          [
            -72.088867,
            43.747161
          ],
          [
            -72.089001,
            43.747565
          ],
          [
            -72.089293,
            43.748006
          ],
          [
            -72.089794,
            43.7486
          ],
          [
            -72.090126,
            43.749027
          ],
          [
            -72.090555,
            43.749658
          ],
          [
            -72.090722,
            43.749985
          ],
          [
            -72.090955,
            43.750592
          ],
          [
            -72.091019,
            43.750798
          ],
          [
            -72.091175,
            43.751487
          ],
          [
            -72.091431,
            43.752159
          ],
          [
            -72.09169,
            43.75261
          ],
          [
            -72.092408,
            43.753831
          ],
          [
            -72.092913,
            43.754645
          ],
          [
            -72.093366,
            43.755356
          ],
          [
            -72.093502,
            43.75554
          ],
          [
            -72.093628,
            43.755876
          ],
          [
            -72.09372,
            43.756222
          ],
          [
            -72.093747,
            43.756431
          ],
          [
            -72.093723,
            43.756846
          ],
          [
            -72.093683,
            43.758108
          ],
          [
            -72.093701,
            43.758385
          ],
          [
            -72.093731,
            43.758523
          ],
          [
            -72.094294,
            43.759862
          ],
          [
            -72.094518,
            43.760247
          ],
          [
            -72.095213,
            43.761251
          ],
          [
            -72.095453,
            43.761631
          ],
          [
            -72.095694,
            43.762159
          ],
          [
            -72.095812,
            43.76264
          ],
          [
            -72.096029,
            43.763249
          ],
          [
            -72.096258,
            43.763711
          ],
          [
            -72.09637,
            43.763974
          ],
          [
            -72.096655,
            43.764645
          ],
          [
            -72.096841,
            43.764969
          ],
          [
            -72.096914,
            43.765172
          ],
          [
            -72.096983,
            43.765302
          ],
          [
            -72.097069,
            43.765426
          ],
          [
            -72.097222,
            43.765679
          ],
          [
            -72.09728,
            43.765811
          ],
          [
            -72.097326,
            43.765947
          ],
          [
            -72.097356,
            43.766085
          ],
          [
            -72.097394,
            43.766362
          ],
          [
            -72.097386,
            43.766534
          ],
          [
            -72.097368,
            43.766923
          ],
          [
            -72.097398,
            43.76727
          ],
          [
            -72.097351,
            43.767618
          ],
          [
            -72.097143,
            43.768011
          ],
          [
            -72.096984,
            43.76834
          ],
          [
            -72.0969,
            43.768681
          ],
          [
            -72.096865,
            43.769097
          ],
          [
            -72.096871,
            43.769588
          ],
          [
            -72.096888,
            43.769938
          ],
          [
            -72.096854,
            43.770215
          ],
          [
            -72.09674,
            43.770556
          ],
          [
            -72.096491,
            43.771011
          ],
          [
            -72.096254,
            43.7713385
          ],
          [
            -72.096085,
            43.771572
          ],
          [
            -72.095783,
            43.77201
          ],
          [
            -72.0952882,
            43.7729347
          ],
          [
            -72.0950942,
            43.7731703
          ],
          [
            -72.0949439,
            43.7733476
          ],
          [
            -72.0948229,
            43.7734566
          ],
          [
            -72.0946762,
            43.7735702
          ],
          [
            -72.0943909,
            43.7738021
          ],
          [
            -72.0941997,
            43.7739768
          ],
          [
            -72.0939541,
            43.7741433
          ],
          [
            -72.0938187,
            43.7742593
          ],
          [
            -72.0937315,
            43.7743585
          ],
          [
            -72.0936636,
            43.7744472
          ]
        ]
      }
    },
    {
      "type": "Feature",
      "id": "way/1431999174",
      "properties": {
        "feature_kind": "road",
        "osm_id": 1431999174,
        "osm_version": 1,
        "osm_timestamp": "2025-09-22T14:16:33Z",
        "name": "Grafton Turnpike",
        "amenity": null,
        "building": null,
        "highway": "unclassified",
        "parking": null,
        "surface": "asphalt",
        "source": "https://www.openstreetmap.org/way/1431999174"
      },
      "geometry": {
        "type": "LineString",
        "coordinates": [
          [
            -72.099605,
            43.787156
          ],
          [
            -72.099682,
            43.787283
          ],
          [
            -72.099781,
            43.787403
          ],
          [
            -72.099998,
            43.787636
          ],
          [
            -72.1002057,
            43.7878576
          ]
        ]
      }
    },
    {
      "type": "Feature",
      "id": "relation/18319298",
      "properties": {
        "feature_kind": "trail",
        "osm_id": 18319298,
        "osm_version": 16,
        "osm_timestamp": "2026-07-01T17:05:11Z",
        "name": "Appalachian Trail",
        "network": "nwn",
        "ref": "AT",
        "route": "hiking",
        "source": "https://www.openstreetmap.org/relation/18319298"
      },
      "geometry": {
        "type": "MultiLineString",
        "coordinates": [
          [
            [
              -72.1047701,
              43.7903
            ],
            [
              -72.1048532,
              43.7901856
            ],
            [
              -72.1048909,
              43.7901188
            ],
            [
              -72.1049224,
              43.7899141
            ],
            [
              -72.1049484,
              43.789776
            ],
            [
              -72.1049573,
              43.7894642
            ],
            [
              -72.1049936,
              43.7893256
            ],
            [
              -72.1050055,
              43.7892575
            ],
            [
              -72.1050482,
              43.7891805
            ],
            [
              -72.1051089,
              43.7891065
            ],
            [
              -72.1051995,
              43.7891055
            ],
            [
              -72.1052884,
              43.7891122
            ],
            [
              -72.1053737,
              43.7890367
            ],
            [
              -72.1054396,
              43.7890058
            ],
            [
              -72.1055818,
              43.7888694
            ],
            [
              -72.1058288,
              43.788644
            ],
            [
              -72.1059223,
              43.7885492
            ],
            [
              -72.1062572,
              43.7878788
            ],
            [
              -72.1063704,
              43.7872033
            ],
            [
              -72.1072,
              43.7864377
            ]
          ]
        ]
      }
    }
  ]
}
